{"fetched_at":"2026-03-30T06:02:59Z","count":15439,"tles":[{"name":"STARLINK-5117","line1":"1 54172U 22141R   26087.80424333  .00000147  00000+0  27302-4 0  9998","line2":"2 54172  53.2166 278.2826 0001346  91.4366 268.6780 15.08837777188740","category":"Starlink"}]}