{
  "norad_id": 54172,
  "name": "STARLINK-5117",
  "history": [
    {
      "epoch": "2026-03-28T19:18:06.623712",
      "apogee_km": 540.6816081245479,
      "perigee_km": 538.8187594636956,
      "latitude_deg": 53.110240083816706,
      "longitude_deg": 34.40735967992805,
      "semi_major_axis_km": 6917.8871837941215,
      "eccentricity": 0.00013464,
      "inclination_deg": 53.2166,
      "raan_deg": 278.2826,
      "arg_perigee_deg": 91.4366,
      "mean_anomaly_deg": 268.678,
      "mean_motion_rev_day": 15.08837777
    }
  ]
}